NORAD_CAT_ID,OBJECT_NAME,OBJECT_TYPE,EPOCH,MEAN_MOTION,ECCENTRICITY,INCLINATION,RA_OF_ASC_NODE,ARG_OF_PERICENTER,MEAN_ANOMALY,BSTAR,MEAN_MOTION_DOT,MEAN_MOTION_DDOT,TLE_LINE0,TLE_LINE1,TLE_LINE2,SEMIMAJOR_AXIS,PERIOD,APOGEE,PERIGEE,DECAYED
53971.0,STARLINK-4639,PAYLOAD,2022-12-18 11:27:14,15.08846527,0.0001967,53.2173,108.7862,41.9602,318.1541,5.082e-05,5.21e-06,0.0,0 STARLINK-4639,1 53971U 22125H   22352.47724639  .00000521  00000-0  50820-4 0  9990,2 53971  53.2173 108.7862 0001967  41.9602 318.1541 15.08846527 11602,6917.86,95.437,541.086,538.365,0.0
53971.0,STARLINK-4639,PAYLOAD,2022-12-18 14:38:00,15.08838435,0.0001991,53.2179,108.1912,40.956,319.1581,-2.2689e-05,-6.49e-06,0.0,0 STARLINK-4639,1 53971U 22125H   22352.60973116 -.00000649  00000-0 -22689-4 0  9996,2 53971  53.2179 108.1912 0001991  40.9560 319.1581 15.08838435 11623,6917.885,95.438,541.128,538.373,0.0
53971.0,STARLINK-4639,PAYLOAD,2022-12-19 08:07:15,15.08835771,0.0002007,53.2178,104.92,39.785,320.3289,0.00010973,1.458e-05,0.0,0 STARLINK-4639,1 53971U 22125H   22353.33837260  .00001458  00000-0  10973-3 0  9995,2 53971  53.2178 104.9200 0002007  39.7850 320.3289 15.08835771 11802,6917.893,95.438,541.1469999999998,538.37,0.0
53971.0,STARLINK-4639,PAYLOAD,2022-12-19 14:28:47,15.08840043,0.0002007,53.2175,103.731,37.0679,323.0451,0.0001296999999999,1.777e-05,0.0,0 STARLINK-4639,1 53971U 22125H   22353.60333010  .00001777  00000-0  12970-3 0  9992,2 53971  53.2175 103.7310 0002007  37.0679 323.0451 15.08840043 11773,6917.88,95.438,541.134,538.357,0.0
53971.0,STARLINK-4639,PAYLOAD,2022-12-20 00:01:06,15.08846281,0.0002052,53.2178,101.9467,38.4925,321.6213,0.00015714,2.214e-05,0.0,0 STARLINK-4639,1 53971U 22125H   22354.00076432  .00002214  00000-0  15714-3 0  9995,2 53971  53.2178 101.9467 0002052  38.4925 321.6213 15.08846281 11903,6917.861,95.437,541.146,538.307,0.0
53971.0,STARLINK-4639,PAYLOAD,2022-12-20 14:19:33,15.08853521,0.0002039,53.2179,99.2714,34.4199,325.6924,6.1385e-05,6.89e-06,0.0,0 STARLINK-4639,1 53971U 22125H   22354.59691921  .00000689  00000-0  61385-4 0  9995,2 53971  53.2179  99.2714 0002039  34.4199 325.6924 15.08853521 11922,6917.839,95.437,541.115,538.294,0.0
53971.0,STARLINK-4639,PAYLOAD,2022-12-21 07:48:50,15.08830484,0.0002006,53.2181,96.0,33.5634,326.5485,-0.00010605,-1.975e-05,0.0,0 STARLINK-4639,1 53971U 22125H   22355.32558115 -.00001975  00000-0 -10605-3 0  9993,2 53971  53.2181  96.0000 0002006  33.5634 326.5485 15.08830484 12102,6917.909000000002,95.438,541.1619999999998,538.387,0.0
53971.0,STARLINK-4639,PAYLOAD,2022-12-21 10:59:36,15.08827603,0.0002085,53.2182,95.4052,35.0667,325.0462,-0.00012,-2.197e-05,0.0,0 STARLINK-4639,1 53971U 22125H   22355.45806474 -.00002197  00000-0 -12000-3 0  9999,2 53971  53.2182  95.4052 0002085  35.0667 325.0462 15.08827603 12055,6917.918000000002,95.438,541.226,538.341,0.0
53971.0,STARLINK-4639,PAYLOAD,2022-12-21 14:10:23,15.08818741,0.0002148,53.2181,94.8111,26.366,333.7441,-9.5221e-05,-1.803e-05,0.0,0 STARLINK-4639,1 53971U 22125H   22355.59055011 -.00001803  00000-0 -95221-4 0  9997,2 53971  53.2181  94.8111 0002148  26.3660 333.7441 15.08818741 12145,6917.945,95.439,541.2959999999998,538.3240000000002,0.0
53971.0,STARLINK-4639,PAYLOAD,2022-12-21 23:42:41,15.08832072,0.0002067,53.218,93.0265,35.2806,324.8322,-0.00010758,-2e-05,0.0,0 STARLINK-4639,1 53971U 22125H   22355.98798464 -.00002000  00000-0 -10758-3 0  9997,2 53971  53.2180  93.0265 0002067  35.2806 324.8322 15.08832072 12205,6917.905,95.438,541.2,538.34,0.0
53971.0,STARLINK-4639,PAYLOAD,2022-12-22 09:15:00,15.08839233,0.0001982,53.2174,91.2422,33.3407,326.771,-2.3671e-05,-6.65e-06,0.0,0 STARLINK-4639,1 53971U 22125H   22356.38541840 -.00000665  00000-0 -23671-4 0  9990,2 53971  53.2174  91.2422 0001982  33.3407 326.7710 15.08839233 12268,6917.8830000000025,95.438,541.119,538.377,0.0
53971.0,STARLINK-4639,PAYLOAD,2022-12-22 15:36:32,15.08843465,0.000205,53.218,90.0531,40.475,319.6394,1.8209e-05,2e-08,0.0,0 STARLINK-4639,1 53971U 22125H   22356.65037474  .00000002  00000-0  18209-4 0  9997,2 53971  53.2180  90.0531 0002050  40.4750 319.6394 15.08843465 12238,6917.87,95.437,541.153,538.317,0.0
53971.0,STARLINK-4639,PAYLOAD,2022-12-23 12:16:34,15.08822435,0.0002191,53.218,86.1877,36.0755,324.0384,0.00012787,1.746e-05,0.0,0 STARLINK-4639,1 53971U 22125H   22357.51151062  .00001746  00000-0  12787-3 0  9993,2 53971  53.2180  86.1877 0002191  36.0755 324.0384 15.08822435 12366,6917.934,95.439,541.315,538.283,0.0
53971.0,STARLINK-4639,PAYLOAD,2022-12-23 13:51:57,15.08824938,0.0002212,53.2181,85.8904,36.5368,323.5774,0.00014737,2.057e-05,0.0,0 STARLINK-4639,1 53971U 22125H   22357.57774926  .00002057  00000-0  14737-3 0  9992,2 53971  53.2181  85.8904 0002212  36.5368 323.5774 15.08824938 12449,6917.926,95.439,541.322,538.261,0.0
53971.0,STARLINK-4639,PAYLOAD,2022-12-23 18:38:06,15.08830437,0.0002321,53.2176,84.9985,35.2629,324.8517,0.00017947,2.568e-05,0.0,0 STARLINK-4639,1 53971U 22125H   22357.77646698  .00002568  00000-0  17947-3 0  9991,2 53971  53.2176  84.9985 0002321  35.2629 324.8517 15.08830437 12405,6917.91,95.438,541.38,538.169,0.0
53971.0,STARLINK-4639,PAYLOAD,2022-12-23 23:24:15,15.08835827,0.0002385,53.2181,84.1065,35.7645,324.3506,0.00021232,3.092e-05,0.0,0 STARLINK-4639,1 53971U 22125H   22357.97518344  .00003092  00000-0  21232-3 0  9994,2 53971  53.2181  84.1065 0002385  35.7645 324.3506 15.08835827 12507,6917.893,95.438,541.408,538.1080000000002,0.0
53971.0,STARLINK-4639,PAYLOAD,2022-12-24 12:07:20,15.08842161,0.000225,53.218,81.7274,37.7879,322.3271,0.00025605,3.789e-05,0.0,0 STARLINK-4639,1 53971U 22125H   22358.50509688  .00003789  00000-0  25605-3 0  9996,2 53971  53.2180  81.7274 0002250  37.7879 322.3271 15.08842161 12510,6917.874,95.437,541.295,538.182,0.0
53971.0,STARLINK-4639,PAYLOAD,2022-12-24 16:53:30,15.08842552,0.0002027,53.2184,80.8361,28.2289,331.8813,3.5231e-05,2.73e-06,0.0,0 STARLINK-4639,1 53971U 22125H   22358.70382140  .00000273  00000-0  35231-4 0  9992,2 53971  53.2184  80.8361 0002027  28.2289 331.8813 15.08842552 12547,6917.873000000001,95.437,541.14,538.335,0.0
53971.0,STARLINK-4639,PAYLOAD,2022-12-25 05:36:35,15.08838706,0.0002133,53.2187,78.4562,29.1428,330.9683,2.5477e-05,1.17e-06,0.0,0 STARLINK-4639,1 53971U 22125H   22359.23374479  .00000117  00000-0  25477-4 0  9995,2 53971  53.2187  78.4562 0002133  29.1428 330.9683 15.08838706 12696,6917.884,95.438,541.225,538.274,0.0
53971.0,STARLINK-4639,PAYLOAD,2022-12-25 16:44:17,15.08835461,0.0002083,53.2186,76.3734,33.415,326.6974,-6.3986e-06,-3.9e-06,0.0,0 STARLINK-4639,1 53971U 22125H   22359.69742795 -.00000390  00000-0 -63986-5 0  9998,2 53971  53.2186  76.3734 0002083  33.4150 326.6974 15.08835461 12697,6917.894,95.438,541.2,538.318,0.0
53971.0,STARLINK-4639,PAYLOAD,2022-12-26 11:48:55,15.08840368,0.0002197,53.2189,72.8058,29.5436,330.5680000000001,-9.2941e-05,-1.767e-05,0.0,0 STARLINK-4639,1 53971U 22125H   22360.49230858 -.00001767  00000-0 -92941-4 0  9991,2 53971  53.2189  72.8058 0002197  29.5436 330.5680 15.08840368 12880,6917.879,95.438,541.264,538.224,0.0
53971.0,STARLINK-4639,PAYLOAD,2022-12-26 16:35:04,15.0883721,0.0002309,53.2188,71.9135,31.3566,328.7563,1.8019e-06,-2.6e-06,0.0,0 STARLINK-4639,1 53971U 22125H   22360.69102868 -.00000260  00000-0  18019-5 0  9993,2 53971  53.2188  71.9135 0002309  31.3566 328.7563 15.08837210 12842,6917.889,95.438,541.351,538.1569999999998,0.0
53971.0,STARLINK-4639,PAYLOAD,2022-12-27 05:18:08,15.08848593,0.0002281,53.2179,69.5362,29.1577,330.9542,0.0001195,1.615e-05,0.0,0 STARLINK-4639,1 53971U 22125H   22361.22093637  .00001615  00000-0  11950-3 0  9995,2 53971  53.2179  69.5362 0002281  29.1577 330.9542 15.08848593 12997,6917.854,95.437,541.297,538.141,0.0
53971.0,STARLINK-4639,PAYLOAD,2022-12-27 10:04:18,15.08842655,0.0002178,53.2184,68.6441,22.6503,337.4585,0.00014492,2.019e-05,0.0,0 STARLINK-4639,1 53971U 22125H   22361.41965852  .00002019  00000-0  14492-3 0  9996,2 53971  53.2184  68.6441 0002178  22.6503 337.4585 15.08842655 13020,6917.871999999999,95.437,541.244,538.231,0.0
53971.0,STARLINK-4639,PAYLOAD,2022-12-27 11:39:41,15.08845778,0.0002085999999999,53.2185,68.3451,30.6597,329.4516,0.000144,2.005e-05,0.0,0 STARLINK-4639,1 53971U 22125H   22361.48589616  .00002005  00000-0  14400-3 0  9997,2 53971  53.2185  68.3451 0002086  30.6597 329.4516 15.08845778 12965,6917.863,95.437,541.1709999999998,538.285,0.0
53971.0,STARLINK-4639,PAYLOAD,2022-12-29 03:24:20,15.08842859,0.0002144,53.2182,60.911,35.5435,324.57,-6.0009e-05,-1.243e-05,0.0,0 STARLINK-4639,1 53971U 22125H   22363.14190324 -.00001243  00000-0 -60009-4 0  9998,2 53971  53.2182  60.9110 0002144  35.5435 324.5700 15.08842859 13286,6917.871999999999,95.437,541.22,538.253,0.0
53971.0,STARLINK-4639,PAYLOAD,2022-12-29 12:56:40,15.08826552,0.0002423,53.2176,59.1214,31.5407,328.5730000000001,-0.00015578,-2.766e-05,0.0,0 STARLINK-4639,1 53971U 22125H   22363.53935744 -.00002766  00000-0 -15578-3 0  9995,2 53971  53.2176  59.1214 0002423  31.5407 328.5730 15.08826552 13345,6917.920999999999,95.438,541.4630000000002,538.11,0.0
53971.0,STARLINK-4639,PAYLOAD,2022-12-30 11:12:03,15.0883207,0.0002475,53.2187,54.9645,35.7576,324.3581,0.00012991,1.779e-05,0.0,0 STARLINK-4639,1 53971U 22125H   22364.46671057  .00001779  00000-0  12991-3 0  9999,2 53971  53.2187  54.9645 0002475  35.7576 324.3581 15.08832070 13483,6917.905,95.438,541.482,538.057,0.0
53971.0,STARLINK-4639,PAYLOAD,2022-12-30 12:47:26,15.08837113,0.0002613,53.2181,54.663,28.8094,331.3042,0.00017516,2.5e-05,0.0,0 STARLINK-4639,1 53971U 22125H   22364.53294647  .00002500  00000-0  17516-3 0  9994,2 53971  53.2181  54.6630 0002613  28.8094 331.3042 15.08837113 13427,6917.889,95.438,541.562,537.947,0.0
